{"type": "FeatureCollection", "features": [{"type": "Feature", "properties": {"identifier": "3beb7c1f-9b35-4cae-adbd-82987275e9e1", "name": "Pilgerherberge St.Gallen", "description": "Die Herberge liegt am Rand der Altstadt St.Gallen, direkt am Jakobsweg, dem Kolumbansweg und an der Via Francisca, drei der bedeutendsten Pilgerwege, die durch die Schweiz f\u00fchren. Die Pilgerherberge Sankt Gallen wird von einem engagierten Team ehrenamtlicher Hospitaleras und Hospitaleros gef\u00fchrt \u2013 viele von ihnen sind selbst erfahrene Pilgerinnen und Pilger. Sie sorgen mit viel Engagement und Gastfreundschaft daf\u00fcr, dass sich die Pilger willkommen f\u00fchlen. Die Tradition der Pilgerherbergen geht auf Kl\u00f6ster, Hospit\u00e4ler und Hospize zur\u00fcck, die seit Jahrhunderten Pilgernde auf ihrem Weg unterst\u00fctzen. Die Pilgerherberge St.Gallen setzt diese Tradition fort und bietet eine einfache, aber gem\u00fctliche Unterkunft f\u00fcr alle, die auf Pilgerwegen unterwegs sind.", "url": "https://pilgerherberge-sg.ch/reservation/", "image": "https://ostpimtsoch.sos-ch-dk-2.exoscale-cdn.com/catalog/d/9/9/0/d990f7ad0230d7aa04961dbe20d3cc1dcab0df6f_4a3ee695210e867f2435e22bc946007f.jpg", "openstreetmap_id": "node/11299979042"}, "geometry": {"type": "Point", "coordinates": ["9.3830486", "47.4249312"]}}, {"type": "Feature", "properties": {"identifier": "56dedcf1-7aeb-45b3-a691-964a5e6f34bc", "name": "Artist in Residence Chretzeturm", "description": "<p>Die Kunstschaffenden unterschiedlicher Disziplinen leben und arbeiten hier f&uuml;r mehrere Monate. Der Aufenthalt bietet den G&auml;sten Zeit und Raum zur Auseinandersetzung mit dem lokalen gesellschaftlichen Kontext, f&uuml;r k&uuml;nstlerische Experimente und die Entwicklung neuer Werke.</p>", "url": "https://air-chretzeturm.ch/", "image": "https://ostpimtsoch.sos-ch-dk-2.exoscale-cdn.com/catalog/2/6/5/4/2654c82e28bf09eceb7ecfea0e4c4798d5161f0b_3eb5de665d3c64b5a9e481e549b763f7.jpg"}, "geometry": {"type": "Point", "coordinates": ["8.860412001904171", "47.66010845"]}}, {"type": "Feature", "properties": {"identifier": "c3a12acb-e5ea-4f73-a7e1-95926bf93b32", "name": "Schlafstrandkorb Rosengarten am Untersee", "description": "Der Schlafplatz liegt in einem Privatgarten umgeben von Rosen und Reben  in erh\u00f6hter Lage ausserhalb von Mammern. Der Schlafstrandkorb steht auf einem nicht einsehbaren gesch\u00fctzten Platz. Er verf\u00fcgt \u00fcber eine warme, bequeme Liegefl\u00e4che von 140 cm x 220 cm und l\u00e4sst sich bei Bedarf variabel schliessen. Decken und Kissen sind selbstverst\u00e4ndlich inbegriffen. Die Abdeckung ist regendicht. Alternative bei pl\u00f6tzlichem heftigem Wetterumschlag ist das G\u00e4stezimmer im Haus. Ein kleiner privater Sitzbereich steht jederzeit zur Verf\u00fcgung. Direkt neben dem Strandkorb befindet sich eine Warmwasser-Outdoordusche sowie eine Toilette mit Wassersp\u00fclung. Ein reichhaltiges Fr\u00fchst\u00fcck ist inbegriffen. Das Abendessen ist individuell zubuchbar. Auf Wunsch ist ein kurzer gef\u00fchrter Rundgang durch die Rosen- und den Gem\u00fcseg\u00e4rten m\u00f6glich. Ansonsten Seele baumeln lassen und die gesamte Gartenanlage geniessen. Von Mai bis September buchbar.", "url": "https://www.bb-rosengarten-am-untersee.ch", "image": "https://ostpimtsoch.sos-ch-dk-2.exoscale-cdn.com/catalog/a/9/2/2/a9221614a606b25f0632de969fe631e296c18192_27fa7a1cf4748aae6b5e2bb496e870d2.jpg"}, "geometry": {"type": "Point", "coordinates": ["8.9294063", "47.6474166"]}}]}