{"type": "FeatureCollection", "features": [{"type": "Feature", "properties": {"identifier": "0140303a-da57-417d-be41-461f3032cfee", "name": "Eisenbergwerk Gonzen", "description": "Der Hausberg Gonzen t\u00fcrmt sich imposant \u00fcber dem Grafenst\u00e4dtchen Sargans auf. Bereits vor rund 2000 Jahren wurde im Berg das eisenhaltige Gestein entdeckt und abgebaut. Dabei entstand ein Labyrinth von Stollen und Galerien mit einer Gesamtl\u00e4nge von fast 90 Kilometern.\n\nSeit 1983 ist ein kleiner Teil des Bergwerks \u00f6ffentlich zug\u00e4nglich. Am Eingang des Bergwerkes befindet sich ein Restaurant sowie ein Museum. Das Museum befindet sich im hinteren Teil des Restaurants und kann unabh\u00e4ngig von einer F\u00fchrung w\u00e4hrend den \u00d6ffnungszeiten des Restaurants besucht werden.\n\nAngeboten werden verschiedene F\u00fchrungen auf Voranmeldung.", "url": "https://www.bergwerk-gonzen.ch/", "image": "https://ostpimtsoch.sos-ch-dk-2.exoscale-cdn.com/catalog/7/7/8/3/77836e596be2bf8712bfc5611ef2ed53b815b5ed_c0b0d46cf286ab9cabef1abde7d105bb.jpg", "openstreetmap_id": "way/211902532"}, "geometry": {"type": "Point", "coordinates": ["9.438442221163582", "47.076702350000005"]}}, {"type": "Feature", "properties": {"identifier": "014b5e18-b72d-477d-a162-48e25403b54a", "name": "Lillybeizli - Hotpot Alp Fischegg", "description": "Egal ob allein, zu zweit oder z.B. bei einem Junggesell(inn)enabschied oder einer Geburtstagsfeier: Lassen Sie den Tag / Abend zu etwas Besonderem werden.", "url": "https://www.lillybeizli.ch/", "image": "https://ostpimtsoch.sos-ch-dk-2.exoscale-cdn.com/catalog/a/1/8/2/a18240ea90ce2005901ff9b2ce6128cf5e1fa554_07d91c6e06dbee7942414ac8d31729df.jpg", "openstreetmap_id": "node/7207036890"}, "geometry": {"type": "Point", "coordinates": ["9.2738364137497", "47.28431670328028"]}}, {"type": "Feature", "properties": {"identifier": "130034e1-ce89-4bf8-901e-a6c2a2b1410a", "name": "Tiererlebnishof - Alpaka- und Lama-Trekking", "description": "<p>Auf dem Tiererlebnishof in Urn\u00e4sch leben Alpakas, Lamas, Kaninchen, H\u00fchner, Truth\u00e4hne und Katzen sowie die H\u00fcndin Colline.\nAls ausgebildete B\u00e4uerin mit Fachausweis und Wildnis- und Tiergest\u00fctzte P\u00e4dagogin (WIP &amp; Tier) bietet Monika Egli eine Vielzahl von Angeboten auf ihrem Hof an. Besonders beliebt sind Trekkingtouren mit den Alpakas und Lamas. Trekking eignet sich f\u00fcr Paare, welche einen privaten, gem\u00fctlichen Spaziergang mit den kuscheligen Tieren geniessen m\u00f6chten, f\u00fcr Teamausfl\u00fcge, um sich im Team von einer anderen Seite kennen zu lernen oder das Familienfest, das in einem etwas aussergew\u00f6hnlichen Rahmen erlebt werden m\u00f6chte, sowie f\u00fcr einen gem\u00fctlichen Tag unter Freunden. Bevor sich die Gruppe auf den Weg macht, erfahren die G\u00e4ste etwas \u00fcber die Tiere, das Trekking und den Hof und werden mit einem kleinen Ap\u00e9ro verw\u00f6hnt. Nach der Einf\u00fchrung folgt der Spaziergang \u00fcber Wiesen und durch W\u00e4lder (ca. die H\u00e4lfte der Zeit des gebuchten Trekkings). Zum Schluss k\u00f6nnen die Tiere als Dankesch\u00f6n f\u00fcr den Spaziergang gef\u00fcttert werden. Jedes Trekking kann an der idyllisch gelegenen Feuerstelle beim Indianertipi im Wald seinen Ausklang finden. Es kann auch ein Grill- oder Fondueplausch dazu gebucht werden.\n\nWenn Sie mit Ihrem Team, Ihren Kindern oder Freunden bei Spiel und Spass einen ganzen Tag auf dem Tiererlebnishof erleben m\u00f6chten, haben Sie die M\u00f6glichkeit die Tiererlebnishof-Olympiade  dazu zu buchen.\n\nBedingungen\nDa Lamas und Alpakas Angst vor fremden Hunden haben, d\u00fcrfen diese nicht zum Trekking mitgenommen werden.\nDie Verantwortung f\u00fcr die Kinder liegt bei den Eltern und die Versicherung ist Sache der Teilnehmer.\nDem Wetter entsprechende Kleidung und Trekking- oder Wanderschuhe.\n\nTrekkingpreise\nDauer: 1 Stunde (Schnuppertour, exkl. Ap\u00e9ro)\n4 - 10 Personen: CHF 33.00 pro Person\n11 - 30 Personen: CHF 30.00 pro Person\n\nDauer: 2 Stunden mit Apero oder Kaffee und Kuchen\n4 - 10 Personen: CHF 48.00 pro Person\n11 - 30 Personen: CHF 45.00 pro Person\n\nDauer: 3 Stunden mit Apero oder Kaffee und Kuchen\n4 - 10 Personen: CHF 68.00 pro Person\n11 - 30 Personen: CHF 65.00 pro Person\n\nFondue- oder Grill-Plausch:\nCHF 25.00 pro Person zus\u00e4tzlich zum gebuchten Trekking</p><p><br></p>", "url": "http://www.tiererlebnishof.ch", "image": "https://ostpimtsoch.sos-ch-dk-2.exoscale-cdn.com/catalog/e/a/d/4/ead486ba321b8158db1a39e00cd6b41d42989e46_f4c36541c7c7cffa0293889da9cc4f8e.JPG", "openstreetmap_id": "987366078"}, "geometry": {"type": "Point", "coordinates": ["9.2801804", "47.3368808"]}}, {"type": "Feature", "properties": {"identifier": "1ebef503-51f6-4b73-9fcb-03ac2c3fd748", "name": "Kr\u00e4uterzauber - Kr\u00e4uterwelt Appenzeller Alpenbitter", "description": "Die Appenzeller sind bekannt f\u00fcr ihre Geheimnisse, sowohl bei K\u00e4se wie auch beim Appenzeller Alpenbitter.\n\nMartina Rocco, dipl. Kr\u00e4uterfachfrau zeigt ihnen auf einem rund 2-st\u00fcndigen Kr\u00e4uterspaziergang die Wildkr\u00e4uter rund um Appenzell. Einige davon sind auch im ber\u00fchmten Appenzeller Alpenbitter zu finden. \n\nIm Anschluss an den Spaziergang besichtigen Sie die \u00abKr\u00e4uterwelt\u00bb. Der neue Betriebsrundgang kombiniert auf gelungene Art und Weise Wissensvermittlung rund um die 42 Kr\u00e4uter und die Appenzeller Brenntradition mit Erlebnis, Spannung und Unterhaltung.\n\nF\u00fcr Gruppen: 10 Personen \u2013 max. 20 Personen\n(bei mehr Personen muss eine 2. Kr\u00e4uterfrau mitlaufen -> Preis auf Anfrage)\n\nKosten pro Person: CHF 45.- inkl. Kr\u00e4uterwanderung und Besichtigung Appenzeller Alpenbitter\n\nBuchbar: Mai bis September, t\u00e4glich auf Anfrage\n\nDauer: 4 Stunden (Vormittag 10 - 14 Uhr oder Nachmittag 15 - 18 Uhr)\n\nTreffpunkt: Brauerei-Parkplatz\n", "url": "https://www.kraeuterzauber.ch/", "image": "https://ostpimtsoch.sos-ch-dk-2.exoscale-cdn.com/catalog/9/5/9/6/9596bbef1b39570b33189bb36b2a2fb62ceec5bf_d53f32af3aa335e0e2cf935424fcffdb.jpg", "openstreetmap_id": "relation/1683860"}, "geometry": {"type": "Point", "coordinates": ["9.4099556", "47.3299558"]}}, {"type": "Feature", "properties": {"identifier": "2a222a76-58f6-4eb0-94c5-9d8a8d71409e", "name": "Appenzeller Friedens-Stationen", "description": "Die Appenzeller Friedens-Stationen laden herzlich zu einer Entdeckungsreise im Appenzeller Vorderland ein. Sie zeigen die humanit\u00e4ren Lebenswerke von bedeutenden Schweizerinnen und Schweizern: Jakob K\u00fcnzler, Carl Lutz, Margrit Besmer und Willi Kobe, Paul Vogt, Gertrud Kurz, Catharina Sturzenegger, Theodosius Florentini, Carl \u00abB\u00f6\u00bb B\u00f6ckli und Henry Dunant. Jede Station ist dem Leben und Werk einer Pers\u00f6nlichkeit gewidmet. \nDie Wanderung zu den Appenzeller Friedens-Stationen zwischen Heiden und Walzenhausen ist auch f\u00fcr Familien gut geeignet. Dabei geht es \u00fcber H\u00f6ger und durch Tobel mit Steigungen, die aber nie sehr lang sind. Der Weg ist bei jedem Wetter gut machbar - auch im Winter.", "url": "https://friedens-stationen.ch/", "image": "https://ostpimtsoch.sos-ch-dk-2.exoscale-cdn.com/catalog/a/7/a/0/a7a0e5609401efd0afbfb2945161f3f7fafbb48b_b5be4e5a6a3482f83df8bbffe09b701e.jpg", "openstreetmap_id": "1077380720"}, "geometry": {"type": "Point", "coordinates": ["9.549802", "47.453412"]}}, {"type": "Feature", "properties": {"identifier": "2a5aea94-a623-4aa0-845b-23f9552797b9", "name": "S\u00e4ntis - Alpschauk\u00e4serei Schw\u00e4galp", "description": "Die K\u00e4serei wurde im Jahr 1996 von den Landwirten, die ihr Vieh w\u00e4hrend des Sommers auf die Alp bringen, gebaut. Im Jahr 1997 wurde auf der Schw\u00e4galp das erste Mal Alpk\u00e4se hergestellt . All diese Landwirte haben sich am Bau beteiligt daher ist es ein Genossenschaftsbetrieb. Im Jahr 2012 wurde die K\u00e4serei erweitert um, mehr Milchmengen zu verarbeiten. Zurzeit liefern etwa 52 Landwirte Alpmilch w\u00e4hrend den Sommermonaten Mai bis September in die K\u00e4serei. Die meiste Milch wird zu feinem Schw\u00e4galpk\u00e4se verarbeitet. Aber auch Raclettk\u00e4se, Butter, Mutschli und Ziegenk\u00e4se werden hergestellt. Der Grossteil des K\u00e4ses geht an die Grossisten. Der Rest wird \u00fcber den Laden auf der Schw\u00e4galp verkauft, der in den Monaten Mai bis Oktober jeden Tag seine T\u00fcren offen hat. Kommen Sie doch vorbei und geniessen Sie die herrlichen Produkte, die in unserer K\u00e4serei hergestellt werden -\u2013 das Verkaufsteam freut sich auf ihren Besuch. Tragen wir doch viel zum Slogan des Culinarium Labels bei \u00abGenuss aus der Region\u00bb.\n\n", "url": "https://www.alpschaukaeserei.ch/", "image": "https://ostpimtsoch.sos-ch-dk-2.exoscale-cdn.com/catalog/6/5/4/1/6541a670e53a0f539b6d0d398dd433ededea4df7_d4ea133ab021fe1a803942bcb7c8e226.jpg", "openstreetmap_id": "65227828"}, "geometry": {"type": "Point", "coordinates": ["9.3184", "47.25581"]}}, {"type": "Feature", "properties": {"identifier": "2fe98728-e934-4b6f-bdc3-234568881508", "name": "Lillybeizli / Alp Fischegg", "description": "Erleben Sie das \u00c4lplerleben und den Appenzeller Brauchtum hautnah. Schnuppern Sie Bergluft und geniessen Sie die prachtvolle Aussicht zwischen Urn\u00e4sch und der Schw\u00e4galp.\n\nBergluft macht hungrig - geniessen Sie im gem\u00fctlichen Lillybeizli eine Original Appenzeller \"Rohmzonne\" oder ein \"Fenz\" - wie der Senn Ueli - oder lassen Sie sich mit Appenzeller K\u00e4sespezialit\u00e4ten verw\u00f6hnen! \nErkunden Sie das Appenzellerland bei einer Kutschenfahrt mit Ruedi Biser.\nUnd dann fallen Sie m\u00fcde, gl\u00fccklich und zufrieden ins Strohbett - mit dem w\u00fcrzigen Heuduft in der Nase wiegt Sie leises Kuhglockengebimmel in den Schlaf.\n\nAm n\u00e4chsten Morgen st\u00e4rken Sie sich beim \u00c4lplerfr\u00fchst\u00fcck mit frischer Alpenbutter, aromatischer Bergmilch und frisch gebackenem Brot und Zopf f\u00fcr einen neuen erlebnisreichen Tag auf der Alp.&nbsp;", "url": "https://www.lillybeizli.ch/", "image": "https://ostpimtsoch.sos-ch-dk-2.exoscale-cdn.com/catalog/b/a/3/4/ba34d8cb7794da866cb233ec0c6967c57bfc1b83_88461418e60acd0ce84943526236dba5.jpg", "openstreetmap_id": "node/7207036890"}, "geometry": {"type": "Point", "coordinates": ["9.273770304491192", "47.28434237698904"]}}, {"type": "Feature", "properties": {"identifier": "3a15b067-e781-4415-af3e-ea0e6db142a6", "name": "FoodTrail \u00abAppenzellerland zu Fuss\u00bb", "description": "<p>Auf die Pl\u00e4tze, fertig, Schnitzeljagd! Mal spazieren, mal r\u00e4tseln, mal wandern, mal staunen, mal geniessen - und immer wieder den Bodensee und den Alpstein zu F\u00fcssen. Sind Sie bereit, wenn&#39;s heisst: einmal Zahnradbahn und Abenteuer, bitte! Durch das L\u00f6sen von R\u00e4tseln lernen Sie die H\u00f6hepunkte der Region kennen und finden zu 6 Genuss-Stationen. Dort werden Sie mit K\u00f6stlichkeiten und regionalen Spezialit\u00e4ten belohnt. Ein spannender Erkundungsrundgang mit hohem Spassfaktor erwartet Sie. Mit FoodTrail erleben Sie das Appenzellerland einmal anders, haben gegessen und getrunken und erfahren nebenbei viel Interessantes.</p><ul><li>Dauer: ca. 5 -6 Stunden, reine Wanderzeit 3 Stunden. Sie sind frei in der zeitlichen Gestaltung. Wegstrecke ca. 8.8 km, H\u00f6henmeter auf / ab: 270 m / 400 m.</li><li>Kosten: CHF 69.00 pro Erwachsene, CHF 40.00 pro Kind 8 - 16 Jahre (Kinder nur in Begleitung Erwachsener)</li><li>Saison: 1. Mai bis 31. Oktober</li><li>Startpunkt: Tourist Information Bahnhof Heiden. Anreise: bereits die Anreise mit der im Preis inbegriffenen Zahnradbahn ab Rorschach (im Sommer mit offenen, nostalgischen Wagen) ist ein echtes Erlebnis.</li></ul><p>Weitere Informationen finden Sie unter <a href=\"https://www.foodtrail.ch/trails/appenzellerland-zu-fuss\" rel=\"noopener noreferrer\" target=\"_blank\">foodtrail.ch</a></p><p>M\u00f6chten Sie das Appenzellerland lieber per E-Bike erkunden? Hier geht&#39;s zum <a href=\"https://appenzellerland.ch/de/erleben/erlebniskarte/detail-gruppenerlebnisse/foodtrail-appenzellerland-per-e-bike-9a338e29-9ff6-44a0-a46d-1348ebbf505d.html\" rel=\"noopener noreferrer\" target=\"_blank\">Foodtrail per E-Bike</a></p>", "url": "https://www.foodtrail.ch/trails/appenzellerland-zu-fuss", "image": "https://ostpimtsoch.sos-ch-dk-2.exoscale-cdn.com/catalog/4/3/a/8/43a83b852e89374c10f5b418a95da1b3d04dd348_76edbaf50015e293dcb5e73257bc591c.jpg", "openstreetmap_id": "8364473311"}, "geometry": {"type": "Point", "coordinates": ["9.536517786519653", "47.4461314262863"]}}, {"type": "Feature", "properties": {"identifier": "4182a526-4b7d-4006-aac8-0b11e4d2f079", "name": "Weissk\u00fcferei, Drechslerei und Pferdefahrten Werner Stauffacher", "description": "Die Weissk\u00fcferei ist ein typisches Handwerk des Bauernstands. Auch wenn inzwischen mancher Alltagsgegenstand aus Aluminium und Chromstahl besteht, insbesondere auf der Alp kommt nach wie vor h\u00f6lzernes Senngeschirr zum Einsatz. So hat bei der Alpfahrt das Mitf\u00fchren eines Lediwagens mit eben diesen Ger\u00e4tschaften Tradition. \nZu den Produkten aus dem Haus Stauffacher geh\u00f6ren auch Zier- und Geschenkartikel und Gedrechseltes. Neben der Werkstatt ist ein Verkaufsladen eingerichtet. Und es werden auf Voranmeldung F\u00fchrung durch die Weissk\u00fcferei angeboten.\n\u00dcbrigens: Stauffachers Betrieb ist aktuell der einzige in der Schweiz, in welchem ein Weissk\u00fcfer-Lernender ausgebildet wird. \nAuf Anmeldung k\u00f6nnen G\u00e4ste auch gerne selber das Handwerk ausprobieren und ein Brettli verzieren.", "url": "https://weisskueferei-stauffacher.ch/", "image": "https://ostpimtsoch.sos-ch-dk-2.exoscale-cdn.com/catalog/1/b/f/b/1bfbb0627a61872cc6d98f7da260ea4d4de8ffc8_6bb55cf892484bae15313b6f46d23c03.jpg", "openstreetmap_id": "node/2091089033"}, "geometry": {"type": "Point", "coordinates": ["9.244115352630617", "47.2443370195092"]}}, {"type": "Feature", "properties": {"identifier": "41e3454e-4d04-4ba9-b634-b712d565f7ef", "name": "Cross-Wind.ch", "description": "<p>Starte erholsam in dein pers&ouml;nliches Wasserabenteuer und entdecke einen der sch&ouml;nsten Flussabschnitte Europas. Mit Cross-Wind.ch, deinem Partner f&uuml;r hochwertige SUP-Touren in der Schweiz.</p><p>So funktioniert&rsquo;s&nbsp;&ndash; Einfach, schnell &amp; flexibel:</p><ul><li>Online buchen &amp; liefern lassen: Wir bringen dir dein SUP fix fertig montiert zur Startlocation.</li><li>R&uuml;ckgabe am Zielort: Kein Schleppen, kein Stress &ndash; einfach abgeben und geniessen.</li><li>Top-Ausr&uuml;stung inklusive: Leichte Carbon-Kajak-Paddel (2-in-1), bequeme SUP-Sitze mit Liegestuhlfunktion, Schwimmwesten &amp; Trockens&auml;cke</li></ul><p>Deine SUP Rhein-Tour: Natur, Kultur &amp; Entspannung, gleite vorbei an:</p><ul><li>Idyllischen Buchten, Historischen Br&uuml;cken (z.\u202fB. Diessenhofen)</li><li>interessanter Tierwelt &amp; Charmanten D&ouml;rfern bis nach Schaffhausen</li><li>geniesse diversen Rhein Badis, Camping Pl&auml;tze und Gartenrestaurants</li></ul><p>Warum Cross-Wind.ch? Wir betreiben Standup Paddling, Inline Skating &amp; Snowkiten mit Leidenschaft.</p><ul><li>Pers&ouml;nlicher Service &amp; flexible Buchungszeiten</li><li>Ideal f&uuml;r entspannte Touren &amp; spontane Trips</li><li>auf Wunsch begleitete Touren, inklusive SUP Basics</li></ul><p>Dein traumhaftes Abenteuer als SUP Rider beginnt hier &ndash; jetzt SUP mieten und lospaddeln bei Cross-Wind.ch!</p>", "image": "https://ostpimtsoch.sos-ch-dk-2.exoscale-cdn.com/catalog/8/9/4/d/894d0c502504c0bdeb18ed5d35a807bbfaf84ad2_2b5b306bee87716395d22e8575cb0f73.jpg"}}, {"type": "Feature", "properties": {"identifier": "551e7686-0043-4e4d-a57e-e1253bca3dc8", "name": "Kneippanlage Sargans mit Kr\u00e4utergarten", "description": "In Sargans liegt die Wassertret- und Armbadanlage des Kneippvereins Sarganserland unterhalb des Schlosses direkt bei der Spleekapelle mit sch\u00f6nem Rundumblick Richtung F\u00fcrstentum Liechtenstein und B\u00fcndner Herrschaft. Instruktionstafeln leiten die Besucher an und zeigen, was es beim Kneippen zu beachten gilt. Ein gepflegter Garten mit beschrifteten Kr\u00e4utern bereichert die sch\u00f6ne Anlage, welche sich ideal zur Entspannung und Erfrischung nach einer Wanderung anbietet.", "url": "https://www.kneipp.ch", "image": "https://ostpimtsoch.sos-ch-dk-2.exoscale-cdn.com/catalog/f/7/5/5/f7558b53ba622ca579f432cd34cbd75a71dd64a6_2531fe477059c1b7a86bf1628f6e28d1.jpg", "openstreetmap_id": "node/560479165"}, "geometry": {"type": "Point", "coordinates": ["9.439567532638982", "47.048750150000004"]}}, {"type": "Feature", "properties": {"identifier": "5b0d24ae-4156-4298-9c74-6f3174daca11", "name": "Gleitschirm Tandemflug beim Ch\u00e4serrugg", "description": "Der 15 bis 20-min\u00fctige Panoramaflug ist t\u00e4glich bei gutem Wetter m\u00f6glich und der 30 bis 45-min\u00fctige Thermikflug ist t\u00e4glich von April bis August m\u00f6glich. Oder wie w\u00e4re es mit unserem DUO-Gleitschirmflug zu zweit parallel an zwei Gleitschirmen? Du hast auch die M\u00f6glichkeit, einen halben Tag mit Privatpilot zu buchen mit bis zu 3 Fl\u00fcgen. Wir bieten ebenfalls Gruppenevents und Schnupperkurse f\u00fcr gr\u00f6ssere Gruppen oder Firmenausfl\u00fcge an.\n\nInkludierte Leistungen: Gesamte Ausr\u00fcstung, Pilot, exkl. Bergfahrt\nkeine Vorkenntnisse erforderlich, ab 8 Jahren", "url": "https://www.passagierflug.ch/", "image": "https://ostpimtsoch.sos-ch-dk-2.exoscale-cdn.com/catalog/e/8/c/c/e8ccfbd1714c84c9909b12316a0be78145c244de_d9a835d0d9c2fe70001579c0977d672f.jpg", "openstreetmap_id": "node/243721699"}, "geometry": {"type": "Point", "coordinates": ["9.312185537778436", "47.15518373298394"]}}, {"type": "Feature", "properties": {"identifier": "620ceb26-a075-4533-a862-986a6b6425d6", "name": "ROOTHUUS GONTEN", "description": "Es erwartet Sie eine Reise durch die Geschichte des denkmalgesch\u00fctzten und 2006 renovierte Haus aus den Jahren 1763/64. Das Roothuus beheimatet den weitherum sch\u00f6nsten Festsaal mit l\u00e4ndlich-barocker Wandmalerei und viele Details erz\u00e4hlen aus der bewegten Geschichte dieses zentralen Hauses von Gonten. Heute beherbergt das Roothuus das Zentrum f\u00fcr die Volksmusik rund um den Alpstein, also das Appenzellerland und das Toggenburg. Eine Ausstellung zeigt jeweils neue Forschungsergebnisse des Hauses und ein Shop l\u00e4dt zum Entdecken der vielf\u00e4ltigen Erzeugnisse ein. Zahlreiche historische Instrumente sind zu sehen und h\u00f6ren. Interessierte Personen erfahren hier viel Wissenswertes aus der gut dokumentierten Geschichte der Appenzeller und Toggenburger Volksmusik. Die individuelle Besichtigung des Roothuus Gonten ist kostenlos.\n\nGerne f\u00fchren wir Sie und Ihre G\u00e4ste durch das Roothuus. Dabei erhalten Sie Informationen zur Geschichte des Hauses, zur Volksmusik und zu den zahlreichen historischen Instrumenten. Ebenso informieren wir Sie \u00fcber unsere aktuellen Forschungsprojekte und geben Einblick in alte Handschriften. \nAuch Jodelkurse sind im Roothuus im Angebot. Dabei \u00fcbt ein S\u00e4nger in Tracht mit Ihnen einen Naturjodel ein und gibt Tipps und Tricks zum Talerschwingen. Auf Wunsch bereichern wir die F\u00fchrung oder den Jodelkurs mit Musik oder einem Ap\u00e9ro.\n\nF\u00fchrungen: \nDauer: ca. 1 Stunde\nTeilnehmerzahl: max. 25 Personen pro Gruppe\nDaten: ganzj\u00e4hrig, t\u00e4glich\nKosten: Montag bis Freitag CHF 160 pro Gruppe / Samstag und Sonntag CHF 210 pro Gruppe\n\nJodelkurse:\nDauer: ca. 2 Stunden\nTeilnehmerzahl: max. 25 Personen pro Gruppe\nDaten: ganzj\u00e4hrig, t\u00e4glich\nKosten: Montag bis Freitag CHF 370 pro Gruppe / Samstag und Sonntag CHF 420 pro Gruppe", "url": "https://www.roothuus-gonten.ch/", "image": "https://ostpimtsoch.sos-ch-dk-2.exoscale-cdn.com/catalog/0/0/d/e/00de46e40e5754e9dc014951355539cb71eccdcc_5dae8999102f47c1f6e5f18c07481371.JPG", "openstreetmap_id": "node/4303008608"}, "geometry": {"type": "Point", "coordinates": ["9.3471841", "47.32882"]}}, {"type": "Feature", "properties": {"identifier": "6b2006a3-10ca-4d42-b1b6-1641f4d34d20", "name": "Waldpark Heiden", "description": "Breitst\u00e4mmige, hohe B\u00e4ume umrahmen den Spielplatz und lassen viel Freiraum f\u00fcr kleine und grosse Besucher. Zwei Grillstellen und gen\u00fcgend Schatten laden zum genussvollen Verweilen ein.", "url": "https://www.kurvereinheiden.ch/", "image": "https://ostpimtsoch.sos-ch-dk-2.exoscale-cdn.com/catalog/d/f/7/e/df7e8b967efa47b1434195ae318b93ec3afddb97_c8b64dfb285682751447f0a9b4e2f633.jpg", "openstreetmap_id": "9320386289"}, "geometry": {"type": "Point", "coordinates": ["9.525554180145264", "47.448382175584925"]}}, {"type": "Feature", "properties": {"identifier": "6ba5fa49-fcf2-401a-b744-092c7b70f788", "name": "Bogenschiessen einmal anders", "description": "<p>Intuitives Bogenschiessen bietet ein herausforderndes k\u00f6rperliches und mentales Workout, das nicht nur Spass macht, sondern auch hoch motivierend ist. Die eingesetzte Methode f\u00fchrt die Trainingsteilnehmenden von einem einzigartigen Erlebnis direkt zu konkreten Ergebnissen. Dabei werden Achtsamkeit, Konzentrationsf\u00e4higkeit und das Bauchgef\u00fchl trainiert. Diese intensiven Eindr\u00fccke bleiben lange im Ged\u00e4chtnis und sind f\u00fcr Menschen aller Fitnesslevels geeignet. Zudem veranstaltet das Team von My-Coach Privat- und Firmenevents vor Ort, wie zum Beispiel beim Restaurant Seehuus in Egnach, im Zelglihof in Ermatingen oder auf Wunsch auch an einem anderen Ort.</p>", "url": "http://www.my-coach.info", "image": "https://ostpimtsoch.sos-ch-dk-2.exoscale-cdn.com/catalog/1/2/a/7/12a777a4182c6cad33c4e394abecff811ee026d1_8e49768137d247dccf6b8d8ec2f00cc3.jpg", "openstreetmap_id": "relation/1684531"}, "geometry": {"type": "Point", "coordinates": ["9.4626537", "47.4946538"]}}, {"type": "Feature", "properties": {"identifier": "6ff4d970-c422-444d-8a7b-03d132e0f38b", "name": "SUP-Verleih in der sagilounge am See", "description": "Stand-up Paddling auf dem Walensee \u2013 ein wunderbares Erlebnis!\n\nUnser Angebot: Stunden- oder tageweise Vermietung von SUPs und Riesen-SUPs (f\u00fcr Gruppen bis 10 Personen) inklusive Paddles, Schwimmwesten, Leashes & kurzer Einf\u00fchrung durch unser Personal.\n\n---\n\nLust auf einen sportlichen Ausflug auf den See? Mieten Sie ein Kanu (f\u00fcr 2-3 Erwachsene oder 2 Erwachsene & 2 Kinder) oder Kajak (f\u00fcr eine erwachsene Person) und erleben Sie den See von seiner sch\u00f6nsten Seite.\n\nUnser Angebot: Stunden- oder tageweise Vermietung von Kanus und Kajaks \u2013 nur auf Voranmeldung. Kanu-/Kajak-Erfahrung w\u00fcnschenswert. Inklusive Paddles und Schwimmwesten sowie kurzer Einf\u00fchrung durch unser Personal.\n\n---\n\nSie m\u00f6chten den Walensee auf dem Motorboot entdecken?\nUnser Angebot: Motorbootmiete f\u00fcr bis zu 10 Personen, mit oder ohne Kapit\u00e4n \u2013 nur auf Voranmeldung. Die Ausgabe und R\u00fccknahme des Boots findet bei der Anlegestelle im sagisteg statt.\n\nAuf Anfrage k\u00f6nnen wir Ihnen auch Wakeboarding, Wasserski, etc. als Option anbieten. Bei der Nutzung des Boots f\u00fcr diese Aktivit\u00e4ten ist die maximale Personenanzahl auf 6 beschr\u00e4nkt.", "url": "https://www.sagibeiz.ch/", "image": "https://ostpimtsoch.sos-ch-dk-2.exoscale-cdn.com/catalog/0/0/6/5/0065c959844c1a408280d4ba4c983eb9c5166bdb_6c525bfef8c250c4ec39578b5d2f6f51.jpg", "openstreetmap_id": "node/418190201"}, "geometry": {"type": "Point", "coordinates": ["9.2191277", "47.1131596"]}}, {"type": "Feature", "properties": {"identifier": "7624847b-b5ed-4a65-8205-2c38a3b5abad", "name": "Alpaka Appenzell", "description": "Der Betrieb liegt auf 1000 m.\u00fc.M, am Jakobsweg auf dem H\u00fcgel Arnig und umfasst 18 ha plus 6 ha Wald.\n\nAuf unserem Hof sind viele Tiere zuhause. Neben der 60-k\u00f6pfigen Alpaka-Familie, die seit 2004 bei uns ihr Zuhause gefunden hat geh\u00f6ren Mutterschweine, Mastschweine, Bienen, Katzen, ein Hund und 21 Brown Swiss K\u00fche zu unserem Milchwirtschaftsbetrieb. \n\nSeit 2015 verkaufen wir all unsere hochstehenden Alpaka Produkte in unserem eigenen Hofladen Alparama. Verschaffen Sie sich bei einem Besuch selbst einen Einblick in unser grosses Sortiment. \n\nIn einer Betriebsf\u00fchrung geben wir gerne Einblick in unseren Alltag. Die Tiere kennenlernen, den Kuhglocken lauschen und dem Summer der Alpakas zuh\u00f6ren, w\u00e4hrendem wir einen Ap\u00e9ro servieren. \n\nNeu erstellen wir mit unserem Tiermist Terra-Preta N\u00e4hrhumus und produzieren unsere eigene Pflanzenkohle. Auf Wunsch erl\u00e4utern wir den Herstellungsvorgang w\u00e4hrend dem Sie mit genauem Auge die Abl\u00e4ufe verfolgen k\u00f6nnen.\n\nUnser Alpaka Hof gibt viele Eindr\u00fccke in unser Wirken. Wir freuen uns \u00fcber Ihren Besuch. \n\nAp\u00e9ro ab 6 Personen:\n1) Alparama Apero: Alpaka-Fleisch, Schweine-Fleisch, K\u00e4seplatte, Mineral und Orangensaft: CHF 25 / Person  ( Kinder: CHF 1.50 pro Alter des Kindes)\n2) Arnig Apero: Schweine-Fleisch (Ohne Alpaka-Fleisch), K\u00e4seplatte, Mineral und Orangensaft: CHF 18 / Person (Kinder: CHF 1.00 pro Alter des Kindes)\n*** Wein und Bier: Separat \n \n\u200b\nHoff\u00fchrung mit Vortrag Pauschal (bis 20 Personen, ab 20 Personen auf Anfrage):\na) Ganze Hofbesichtigung: Alpakas, Schweine, K\u00fche, Terra-Preta N\u00e4hrhumus, Pflanzenkohle = CHF 250.-\nb) Tier Besichtigung: Alpakas, Schweine, K\u00fche = CHF 200.-\nc) Alpaka Besichtigung: nur Alpakas mit Hand F\u00fctterung = CHF 150.-", "url": "http://www.alpaka-appenzell.ch/", "image": "https://ostpimtsoch.sos-ch-dk-2.exoscale-cdn.com/catalog/5/5/7/8/5578097f75c37ff0bc261c24d5db2bcaaeb4975b_91ec9484b4c78bb907e2e1e6b3b7a8f7.jpg", "openstreetmap_id": "node/3666869209"}, "geometry": {"type": "Point", "coordinates": ["9.213699102401735", "47.33557855044936"]}}, {"type": "Feature", "properties": {"identifier": "78fc34b7-92e2-49c5-ab35-2fc844bdf0c9", "name": "Appenzeller Bahnen - Gruppenangebote", "description": "<b>Geschichte und Tradition</b> \nStarten Sie den unvergesslichen Tag in Altst\u00e4tten Stadt oder in Gais mit einer Fahrt in der Zahnradbahn. Wahlweise erhalten Sie bei Ihrem Programm einen Einblick in die Geschichte der Sperre Stoss oder erleben das Handwerk der Weissk\u00fcferei &amp; Drechslerei. Ein Ap\u00e9ro und/oder ein Mittagessen/Nachtessen runden den Tag gelungen ab. \n<a href=\"https://appenzellerbahnen.ch/de/erlebnisangebote/gruppenangebote/gruppenausfluege-altstaetten-gais.html\" target=\"_blank\" title=\"HTML Code Generator\">Weitere Informationen zum Angebot Geschichte und Tradition</a> \n\n<b>Erlebnisrundfahrt</b> \n\u00abEmol rondom\u00bb - mit zwei Bergbahnen und einem Schiff durch das Appenzeller Vorderland. Mit der Bergbahn der Appenzeller Bahnen fahren Sie mit einem atemberaubenden Ausblick auf den Bodensee von Rorschach hinauf ins sch\u00f6ne Biedermeierdorf Heiden. Nach dem Mittagessen reisen Sie von Heiden mit dem eigenen Car oder dem \u00f6ffentlichen Postauto zur Aussichtsterrasse Walzenhausen. Als weiteres Highlight folgt die Talfahrt mit der Zahnradbahn von Walzenhausen nach Rheineck. Anschliessend haben Sie bei einer gem\u00fctlichen Schifffahrt auf dem alten Rhein Zeit, die sch\u00f6ne Landschaft zu geniessen, bevor der Halbtagesausflug in Rorschach endet. \n<a href=\"https://appenzellerbahnen.ch/de/erlebnisangebote/gruppenangebote/erlebnisrundfahrt.html\" target=\"_blank\" title=\"HTML Code Generator\">Weitere Informationen zur Erlebnisrundfahrt</a> \n\n<b>Emol Querd\u00f6re \u2013 eine Erlebnisfahrt durch das Appenzellerland</b> \nIn Gossau startend f\u00fchrt Sie die Fahrt mit den Appenzeller Bahnen nach Appenzell, wo Sie eine Dorff\u00fchrung durch das heimelige Dorf erleben. Wahlweise kann auch eine Dorff\u00fchrung in Gais gebucht werden. Im Gasthof zum Hirschen in Gais kommen Sie in den Genuss eines k\u00f6stlichen Mittagessens. Nach einer Fahrt mit der Zahnradbahn ins Rheintal, lassen Sie den Tag bei einem gem\u00fctlichen Spaziergang durch die Marktgasse Altst\u00e4ttens und einer s\u00fcssen Verf\u00fchrung ausklingen. Die Reise wird auch in entgegengesetzter Richtung mit Start in Altst\u00e4tten Stadt angeboten. <a href=\"https://appenzellerbahnen.ch/de/erlebnisangebote/gruppenangebote/emol-querdoere.html\" target=\"_blank\" title=\"HTML Code Generator\">Weitere Informationen zum Gruppenangebot Emol Querd\u00f6re</a> \n\n<b>Allgemeine Informationen</b>\nDauer: ca. 5-9 Stunden \nTeilnehmende: Ab 10 Personen \nKosten: ab CHF 43.00 pro Person", "url": "https://appenzellerbahnen.ch/de/", "image": "https://ostpimtsoch.sos-ch-dk-2.exoscale-cdn.com/catalog/5/4/4/e/544ecb51b26aebdaba8ef54f62fbddf25924a865_c39948d246a1a9afa32871417589586d.jpg", "openstreetmap_id": "node/10004560606"}, "geometry": {"type": "Point", "coordinates": ["9.282066", "47.3927145"]}}, {"type": "Feature", "properties": {"identifier": "7944f9ad-ab6c-4fa4-a055-472e19a2ab69", "name": "Swiss Helicopter AG", "description": "<p>Als f\u00fchrende Helikopterfirma bieten wir zuverl\u00e4ssige, sichere und professionelle Dienstleistungen. Unser erfahrenes Team nutzt moderne Technologien und engagiert sich f\u00fcr Nachhaltigkeit und kontinuierliche Verbesserung \u2013 f\u00fcr Ihre Zufriedenheit und eine sichere Zukunft.</p>", "image": "https://ostpimtsoch.sos-ch-dk-2.exoscale-cdn.com/catalog/1/2/7/e/127e2b6d1239680371baf60b1a6786c0b2174b5d_a44115e41b2a60e7c192a130f558af26.jpg"}, "geometry": {"type": "Point", "coordinates": ["9.5511007", "46.9131752"]}}, {"type": "Feature", "properties": {"identifier": "7a78c4c8-3054-4934-a924-19620dabcfd4", "name": "Sato Code Herisau", "description": "<p><span style=\"background-color: rgb(255, 255, 255); color: rgb(78, 71, 67);\">Versteckte Hinweise, geheime Objekte und geteilte Informationen \u2013 genau wie in einem klassischen Escape Room, aber mit dem Vorteil, dass ich Herisau richtig erlebt.</span></p><p><span style=\"background-color: rgb(255, 255, 255); color: rgb(78, 71, 67);\">Das Spiel findet komplett draussen statt, im Herzen des Dorfs. Jeder Winkel birgt ein Geheimnis. Jedes R\u00e4tsel bringt uns der Wahrheit n\u00e4her. Gemeinsam entwirrt ihr eine verborgende Geschichte und entdeckt die mysteri\u00f6se Seite von Herisau. Wie im\u00a0\u00abThe Da Vinci Code\u00bb\u00a0\u2013 und ihr seid die Hauptfiguren. Trefft die richtige Entscheidung, w\u00e4hlt den richtigen Verb\u00fcndeten und lasst das Spiel beginnen...</span></p><p><span style=\"background-color: rgb(255, 255, 255); color: rgb(78, 71, 67);\">Der Start ist jederzeit m\u00f6glich, an jedem Tag. Einfach Ticket kaufen, zum Startpunkt gehen und die Sato-Code-App \u00f6ffnen. Das Spiel bietet zwei Schwierigkeitsstufen und ist eine v\u00f6llig neue Art, eine Stadt oder ein Dorf zu entdecken \u2013 perfekt f\u00fcr alle, die Spannung, Teamwork und unerwartete Wendungen lieben.</span></p>", "url": "https://www.sato-code.com/de", "image": "https://ostpimtsoch.sos-ch-dk-2.exoscale-cdn.com/catalog/8/c/6/3/8c638ebbdb38535529f88cd5d8ea1f97d9f2e81e_99d882fb7ad8e716451b081f17c95d84.png"}, "geometry": {"type": "Point", "coordinates": ["9.2773223", "47.3900655"]}}, {"type": "Feature", "properties": {"identifier": "7b7874ad-6150-4387-a39f-8630e646ed28", "name": "Gleitschirm Tandemfliegen im Heidiland", "description": "Du m\u00f6chtest gern wie ein Vogel durch die L\u00fcfte schweben und das sch\u00f6ne Heidiland von oben sehen? Ein Gleitschirm Tandemflug macht&#039;s m\u00f6glich. Ivo Gr\u00fcnenfelder mit seinem Team von Chicken Wings Paragliding freut sich seine langj\u00e4hrigen Erfahrungen mit dir zu teilen. Ausgezeichnete Piloten bereiten Dir ein Erlebnis der Extra-Klasse.\nGeflogen wird haupts\u00e4chlich vom Pizol, Flumserberg-Maschgenkamm-Prodkamm und Walenstadtberg-Schrina. Am herrlichen Pizol, der im Winter wie Sommer ein beliebtes Skigebiet/Wander und Gleitschirm Fluggebiet ist, hat man die M\u00f6glichkeit gleich mehrere Startpl\u00e4tze auszuw\u00e4hlen. Je nach Wind wird dein Pilot mit dir die Gondelbahn in Bad Ragaz nehmen und bis zur Bergstation Laufb\u00f6den fahren. Oder ihr entschlie\u00dft euch f\u00fcr den Wangserberg wo man dann von der Pizolh\u00fctte einen atemberaubenden Blick ins Heidiland hat. Nach nur wenigen Schritten kannst du dir ein herzerw\u00e4rmendes Bild deiner Wohn-oder Ferienregion von oben machen. \n\nVorkenntnisse sind keine n\u00f6tig. Und da wir sanft ins Tal gleiten und nicht vom Berg springen ist auch H\u00f6henangst absolut kein Hindernis.\nIm Winter ben\u00f6tigst du lediglich eine Skihose, eine warme Jacke und gute Schuhe. Die restliche Ausr\u00fcstung wird dir von Chicken Wings gestellt. Somit steht deinem Abenteuer nichts mehr im Wege. Wir k\u00f6nnen Gruppen bis 20 Personen empfangen.\n\nDas Chicken Wings Team freut sich auf Dich!", "url": "http://www.chickenwings.ch", "image": "https://ostpimtsoch.sos-ch-dk-2.exoscale-cdn.com/catalog/9/0/7/f/907f60828acf5a7e1d935551ee53a423b46db2da_9a0e6552c1750216ba5ba04170bd2003.JPG", "openstreetmap_id": "way/319291413"}, "geometry": {"type": "Point", "coordinates": ["9.441555312303231", "47.027426893364144"]}}, {"type": "Feature", "properties": {"identifier": "854d103e-742e-4405-9e8b-da777d376a11", "name": "Lillybeizli - Kutschenfahrten", "description": "Als gelernter Hufschmied und Landwirt bietet Ruedi Biser interessante, beruhigende und abwechslungsreiche Ausfahrten mit seine Pferden an. Es stehen verschiedene Kutschen, passend zu jedem Anlass, zur Verf\u00fcgung: \nDer Gesellschaftswagen eignet sich f\u00fcr bis zu 10 Personen f\u00fcr gem\u00fctliche Rundfahrten, Transport zu einem Restaurant oder zum gemeinsamen Grillieren.\nEbenso eignet sich diese Wagen perfekt f\u00fcr Ihren massgeschneiderten Anlass, wie Geburtstage, Junggesell(in)enabschiede, Hochzeiten oder einfach f\u00fcr Ihre Liebsten.\n\nMit der Hochzeitskutsche (Landauer) erleben Sie an Ihrem grossen Tag mit dem sch\u00f6n geschm\u00fcckten Gespann und der feierlichen Kutsche einen besonderen und einzigartigen Tag - so wird Ihre Hochzeit unvergesslich!", "url": "https://www.kutschenfahrten-urnaesch.ch/", "image": "https://ostpimtsoch.sos-ch-dk-2.exoscale-cdn.com/catalog/2/3/c/8/23c80d900f0f35c3f5bb6a19b2b122b5e3ea0320_87a89df8f9d07eb0a2ce3fa0d80c2863.jpg", "openstreetmap_id": "way/505489242"}, "geometry": {"type": "Point", "coordinates": ["9.273780539738482", "47.28439829704859"]}}, {"type": "Feature", "properties": {"identifier": "8aa52c3c-7087-4539-91f2-80c01e2a33a3", "name": "Appenzeller Schauk\u00e4serei - Ch\u00e4sh\u00f6rnli selber kochen", "description": "... kochen Sie gemeinsam am K\u00e4sekessi Ihre eigenen typisch appez\u00f6llischen Ch\u00e4sh\u00f6rnli. Unter Anleitung eines K\u00e4sespezialisten werden Sie in das Leibgericht jedes Appenzellers eingef\u00fchrt. Geniessen Sie diesen herzhaften Schmaus im urchigen H\u00f6ckli.\n\nIhr Men\u00fc:\nGr\u00fcner Salat mit Croutons an Haussauce\n***\nCh\u00e4sh\u00f6rnli mit Apfelmus und Zwiebeln\n***\nSchlorzifladen mit Rahm\n\nIn Kombination mit dem Pauschalangebot \u00abAppenzeller Stolz\u00bb m\u00f6glich", "url": "http://www.schaukaeserei.ch/", "image": "https://ostpimtsoch.sos-ch-dk-2.exoscale-cdn.com/catalog/e/9/1/2/e912023743cf25fcbc54e12a47aa11e798b8a140_c121d562d7bc26e7a8df824bf6c27853.jpg", "openstreetmap_id": "1436691275"}, "geometry": {"type": "Point", "coordinates": ["9.344712", "47.373415"]}}, {"type": "Feature", "properties": {"identifier": "8f612329-bbe7-4d90-8547-00017d89f8ad", "name": "Heididorf Maienfeld", "description": "<p>Besuchen Sie das Heididorf in Maienfeld, den Originalschauplatz der weltbekannten Heidi-Geschichte.</p><p>Der friedliche Weiler beherbergt das Original Heidihaus, das Wohnhaus mit der Einrichtung wie zu Heidis Zeiten, Heidis Alph&uuml;tte, die Nachbildung vom liebevollen Zuhause von Alp&ouml;hi, die Ausstellung Johanna Spyris Heidiwelt sowie die Dorfschule von Heidi aus dem Jahr 1880. Im D&ouml;rfli warten bereits Heidis Tiere und im Dorfladen mit Souvenirs befindet sich die kleinste Poststelle der Schweiz mit dem Heididorf-Sonderstempel.</p><p>Im Heididorf lebt auch alles, zum Teil fast vergessenes Handwerk wieder auf. Heidi begeistert seit Jahrzehnten Kinder in aller Welt und l&auml;sst auch Erwachsenenherzen h&ouml;herschlagen. Trotz internationalen Auftritten in B&uuml;chern, Musicals, Zeichentrickserien und Filmen hat unser Heidi seine Wurzeln nicht vergessen. Denn nirgends auf der Welt ist Heidis Aura und Pers&ouml;nlichkeit sp&uuml;rbarer als im Heididorf - dem Original Spielort der weltber&uuml;hmten Heidi-Geschichte. Entdecken Sie die weltbekannte Geschichte &bdquo;Heidi&ldquo; von Johanna Spyri im authentischen Heididorf, inmitten einer imposanten Bergwelt.</p><p>Im Heididorf oberhalb von Maienfeld erleben Sie eine emotionale Zeitreise zur&uuml;ck in die Schweizer Bergwelt des sp&auml;ten 19. Jahrhundert und erfahren Sie wie Heidi lebte. Heidi - Ein Kind bewegt die Welt.</p>", "url": "http://www.heididorf.ch", "image": "https://ostpimtsoch.sos-ch-dk-2.exoscale-cdn.com/catalog/4/4/e/e/44ee7944e8ee8df9e0aada50d7ccc7aa47a9c086_39c1bdf1fab045fd8214265aa02e144c.jpg", "openstreetmap_id": "node/1391377542"}, "geometry": {"type": "Point", "coordinates": ["9.5451067", "47.0132367"]}}, {"type": "Feature", "properties": {"identifier": "9122220f-1630-4f1b-845b-37c3e2feb38a", "name": "RhySauna Schaffhausen", "description": "W\u00e4hrend den kalten Wintermonaten ist das Sauna-Jurtend\u00f6rfli der ideale Ort zum Entspannen und W\u00e4rme tanken. Im gr\u00f6ssten noch erhaltenen Kastenbad der Schweiz haben Sie die Wahl zwischen einer Fass-Sauna mit wundersch\u00f6ner Aussicht auf den Rhein und Schaffhausen, einer Arvensauna mit wohltuendem Duft und einer Jurtensauna mit heissen Aufg\u00fcssen. \n\nNach dem Saunieren sorgt der Rhein f\u00fcr Abk\u00fchlung, und in der Ruhejurte mit grosser Fensterfront l\u00e4sst sich die Hektik des Alltags schnell vergessen. In der Bistrojurte versorgen wir Sie mit erfrischenden Getr\u00e4nken und leckeren Speisen.\n\nDas Jurtend\u00f6rfli kann auch exklusiv gemietet werden.", "image": "https://ostpimtsoch.sos-ch-dk-2.exoscale-cdn.com/catalog/b/0/3/6/b036f9db5f5b6eb3df8971ffefea51398b87d1ab_caf1e471eeb7ec01dd484f061925bba0.jpg"}}, {"type": "Feature", "properties": {"identifier": "9393e549-6b2b-49b1-8e9e-35c111c6f865", "name": "Minigolf Krombach Herisau", "description": "Die sch\u00f6ne und gepflegte Anlage l\u00e4dt geradezu zum Verweilen ein. Das Spiel f\u00fcr Spass und Plausch kann f\u00fcr passionierte \u00abMinigolfer\u00bb auch wettkampfm\u00e4ssig ausgetragen werden.\nIm Clubh\u00e4uschen steht Ihnen w\u00e4hrend den \u00d6ffnungszeiten ein Kiosk mit diversen Getr\u00e4nken und Snacks zur Verf\u00fcgung. An der sch\u00f6nen Grillstelle, mit Sitzgelegenheiten und Tischen, kann zum Abschluss einer Partie Minigolf mitgebrachtes Grillgut aufgelegt werden. Gen\u00fcgend Brennholz ist gratis vorhanden. \nF\u00fcr Gruppen ab 10 Personen wird die Anlage auch ausserhalb der regul\u00e4ren Zeiten ge\u00f6ffnet. \n\nBei feuchter Witterung bleibt die Anlage geschlossen. Letzte Schl\u00e4gerausgabe bis 1 Stunde vor Schliessung. Bitte parkieren Sie auf dem zentralen geb\u00fchrenpflichtigen Parkplatz.", "url": "https://www.minigolf-herisau.ch/", "image": "https://ostpimtsoch.sos-ch-dk-2.exoscale-cdn.com/catalog/2/9/e/6/29e63f1b19ecc0e6b8f273c3c38341884cdf84dc_82c91613aea2d86c2bc58d1e2e80b641.jpg", "openstreetmap_id": "way/27759049"}, "geometry": {"type": "Point", "coordinates": ["9.260879158973696", "47.386801002283"]}}, {"type": "Feature", "properties": {"identifier": "94756081-b14e-40f0-b019-10b73a43b713", "name": "Kutschenfahrten", "description": "Auf einer Kutschenfahrt kann das Appenzellerland bei gem\u00fctlichem Tempo herrlich erkundet werden. Ein echtes Highlight sind die Fahrten in Urn\u00e4sch oder St. Anton.\n\n\nUrn\u00e4sch:\nWerner Frick, Berg 783, 9107 Urn\u00e4sch\n+41 79 711 59 33\n\nUrn\u00e4sch:\nLillybeizli / Alp Fischegg, Ruedi Biser, Urn\u00e4sch\n+41 79 782 19 46\nbiser.ruedi@gmx.ch\n\nSt.Anton:\nKafi Anton, Werner Schirmer\n+41 71 340 02 14\n+41 78 739 70 10\nv.w.schirmer@gmail.com\n\nEnnetb\u00fchl:\nWeissk\u00fcferei & Drechslerei, Werner & Jolanda Stauffacher\n+41 71 994 10 53\ninfo@weisskueferei-stauffacher.ch\n\n\nDauer: 2-3 Stunden\nTeilnehmer: 5-20 Personen\nKosten: auf Anfrage und je nach Strecke\nOrt: im gesamten Appenzellerland", "image": "https://ostpimtsoch.sos-ch-dk-2.exoscale-cdn.com/catalog/4/f/c/9/4fc9e09ade4ce78364cebb062ce6e17439a7bda6_eb7cda2ab931e779cbc1438df3f40f20.jpg", "openstreetmap_id": "1098126342"}, "geometry": {"type": "Point", "coordinates": ["9.2677746", "47.3147311"]}}, {"type": "Feature", "properties": {"identifier": "9955cbb5-4d55-4455-a10f-b1e9d611776f", "name": "A.Vogel Heilpflanzenwelt \u2013 Besichtigung", "description": "<p>Nicht nur der Heilpflanzen-Schaugarten ist eine Augenweide, auch das A.Vogel Museum (Neuer&ouml;ffnung am 16. Juni 2024) und die A.Vogel Drogerie sind einen Besuch wert. Kommen Sie mit auf eine spannende F&uuml;hrung in die A.Vogel Heilpflanzenwelt und stellen Sie unter fachkundiger Anleitung Ihr eigenes Produkt zum Mitnehmen her.</p><p>Dauer: ca. 1.5 Stunden <br>Teilnehmer: bis 80 Personen <br>Kosten: bis 10 Personen CHF 140.00 pauschal, <br>&nbsp; &nbsp; &nbsp; &nbsp; &nbsp; &nbsp; &nbsp; &nbsp; ab 10 Personen CHF 14.00 pro Person, ink. Geschenk</p>", "url": "https://www.avogel.ch", "image": "https://ostpimtsoch.sos-ch-dk-2.exoscale-cdn.com/catalog/9/2/3/8/9238f50793040ceb7504457ce03593fbe10a9046_1789ac0eb7eb08398453f00dfdf44bef.jpg", "openstreetmap_id": "317444208"}, "geometry": {"type": "Point", "coordinates": ["9.389339000000064", "47.395765"]}}, {"type": "Feature", "properties": {"identifier": "9a338e29-9ff6-44a0-a46d-1348ebbf505d", "name": "FoodTrail \"Appenzellerland per E-Bike\"", "description": "<p>Erleben Sie das Appenzellerland auf zwei R\u00e4dern: urspr\u00fcngliche Natur, regionale K\u00f6stlichkeiten und herzliche Gastfreundschaft erwarten Sie auf dieser genussvollen E-Bike-Schnitzeljagd. Zwischen steilen Anstiegen und traumhaften Ausblicken entdecken Sie echte Appenzeller Tradition \u2013 \u00abS\u00f6nd Willkomm\u00bb!</p><ul><li>5 Genuss-Stationen mit Essen oder Trinken</li><li>Gemeinsamer R\u00e4tselspass. Am Startpunkt erh\u00e4ltst du das erste R\u00e4tsel</li><li>Appenzeller Mittelland und interessante Orte erleben</li><li>Spannendes \u00fcber Region und Geschichte erfahren</li></ul><p>Dauer: ca. 6-7 Stunden, reine Fahrzeit: 2.5 Stunden. Sie sind frei in der zeitlichen Gestaltung. Wegstrecke: ca. 29km, H\u00f6henmeter auf / ab: 880m / 880m</p><p>Kosten: CHF 69.00 pro Erwachsene / E-Bike Miete f\u00fcr den ganzen Tag CHF 70.00</p><p>Saison: 1. Mai bis 31. Oktober</p><p>Startpunkt: Kinderdorf Pestalozzi, Trogen. Anreise: Individuelle Anreise ins Kinderdorf Pestalozzi Trogen, Parkpl\u00e4tze vorhanden</p><p>Weitere Informationen finden Sie unter: <a href=\"https://www.foodtrail.ch/appenzellerland-per-e-bike\" rel=\"noopener noreferrer\" target=\"_blank\">foodtrail.ch</a></p><p>M\u00f6chten Sie das Appenzellerland lieber zu Fuss erkunden? Hier geht&#39;s zum <a href=\"https://appenzellerland.ch/de/erleben/erlebniskarte/detail/foodtrail-appenzellerland-zu-fuss-3a15b067-e781-4415-af3e-ea0e6db142a6.html\" rel=\"noopener noreferrer\" target=\"_blank\">Foodtrail zu Fuss</a></p>", "url": "https://www.foodtrail.ch/appenzellerland-per-e-bike", "image": "https://ostpimtsoch.sos-ch-dk-2.exoscale-cdn.com/catalog/6/4/6/9/6469648deaa06cec8626391da2bba9afe6142201_8b57828e2ac1bcd7c688ae3897808532.jpg"}, "geometry": {"type": "Point", "coordinates": ["9.4600442", "47.404134"]}}, {"type": "Feature", "properties": {"identifier": "9be96916-483a-4e55-9a0b-93862787dd62", "name": "Eulengl\u00fcck", "description": "<p>Wir bieten folgende Erlebnisse mit unseren Eulen an:<br><br><strong>Erlebnisspaziergang mit Eulen</strong><br>Wir gehen mit Ihnen durch die Landschaft und zeigen Ihnen den Lebensraum der Eulen. Alternativrouten f&uuml;r Personen mit Handicap sind m&ouml;glich.<br><br><strong>Relaxprogramm mit Eulen</strong><br>Ausspannen und den Alltag vergessen?<br>Lassen Sie sich von unseren Eulen dabei helfen.<br>Bei einem Getr&auml;nk und einer Eule auf der Hand einfach den Augenblick geniessen!<br><br><strong>Naturfotoshooting mit Eulen<br></strong>Brauchen Sie f&uuml;r Ihren Fotokurs ein besonderes Motiv?<br>M&ouml;chten Sie eine Eule in der Natur fotografieren?</p>", "image": "https://ostpimtsoch.sos-ch-dk-2.exoscale-cdn.com/catalog/7/7/f/2/77f23b701c5f225342bc3afbbc155967e4b53b45_ff40900b61bfda8a7d06a45d9d74a220.jpg"}}, {"type": "Feature", "properties": {"identifier": "9c5fbf1f-d077-4565-85cd-cc74e89b9faf", "name": "Gleitschirmfliegen am Flumserberg", "description": "Das Fluggebiet des Gleitschirmclubs Spitzmeilen (GCS) umfasst die Flumserberge und Sch\u00f6nhalden (Kleinberg) in Flums. Zu den Startpl\u00e4tzen geh\u00f6ren Prodkamm (NO\u2013W), Maschgenkamm (W\u2013NW und S\u2013SO) sowie Sch\u00f6nhalden (NO).\n\nPiloten und Pilotinnen, die Start- und oder Landepl\u00e4tze des GCS benutzen, ben\u00f6tigen eine Jahres- oder Tagesvignette. Dies muss irgendwo sichtbar aufgeklebt werden. \nDie Tageskarte kostet CHF 8.00, die Jahreskarte CHF 30.00. \nWeitere Informationen unter: www.gc-spitzmeilen.ch/fluggebiet\n\nFlugschulen und Siku-Veranstalter, die im Fluggebiet des GCS schulen m\u00f6chten, sind willkommen. \nAlle Sch\u00fclerinnen und Sch\u00fcler m\u00fcssen ebenfalls im Besitz einer g\u00fcltigen Tages- oder Jahresvignette sein.\n\nJeden zweiten Sommer findet das mehrt\u00e4gige Flugfest des GCS statt \u2013 ein Erlebnis f\u00fcr Gross und Klein, Piloten und Besucher. \nWeitere Informationen sowie aktuelle Meteodaten, Tarife, Gefahrenhinweise, Tipps und News findest du auf den Informationstafeln bei den Landepl\u00e4tzen und auf der Webseite des GCS: www.gc-spitzmeilen.ch", "url": "https://www.gc-spitzmeilen.ch", "image": "https://ostpimtsoch.sos-ch-dk-2.exoscale-cdn.com/catalog/9/c/3/d/9c3ddf60c1007fa5c2fff4c849cfa3d9541e732c_8c17c6de704c4e7790a2ff8418bcf919.JPG"}, "geometry": {"type": "Point", "coordinates": ["9.341813", "47.0907098"]}}, {"type": "Feature", "properties": {"identifier": "a7ce0582-c6cb-4d18-bd54-9f2e0438c0e9", "name": "Werner's Ponyhof und R\u00f6sslifahrten", "description": "<p>Geniessen Sie eine Kutschenfahrt durchs Appenzellerland an die Sie sich gerne noch lange erinnern werden. Sei es eine romantische Kutschenfahrt oder einen Ausflug mit der Familie oder Freunden - die Kutschenfahrten sind auf Anfrage jederzeit m\u00f6glich. Im Winter wird ein Schlitten f\u00fcr bis zu 6 Personen angeboten, im Sommer eine Gesellschaftskutsche f\u00fcr bis zu 10 Personen. Preis: bis 2 Stunden: CHF 300 / ab 2 Stunden: CHF 400</p><p></p><p><strong>Fonduefahrten</strong></p><p>F\u00fcr ein ganz besonderes Erlebnis steht f\u00fcr Sie zwischen November und April die voll ausgestattete Fonduekutsche parat. Es erwartet Sie ein gem\u00fctlicher Plausch mit regionalem K\u00e4sefondue, Brot, Wein, Appenzeller, Mineralwasser und Knabberzeug. Sie d\u00fcrfen das Fondue w\u00e4hrend der Fahrt selbst zubereiten.</p><p>Dauer: 2.5 - 3 Stunden / Fonduekutsche: bis 10 Personen</p><p>Preis: CHF 400 pauschal bis 5 Personen. Jede weitere Person CHF 80.</p><p>Bitte kleiden Sie sich dem Wetter entsprechend - in der Kutsche gibt es zus\u00e4tzlich warme Wolldecken.\u00a0</p>", "url": "https://www.appenzeller-erlebnisbauernhof.ch/werners-ponyhof", "image": "https://ostpimtsoch.sos-ch-dk-2.exoscale-cdn.com/catalog/1/5/e/1/15e1c789ed84975eaaac127351aed18edf6dca58_991fcec88edae1091ba19b7ab33bcb2e.jpg", "openstreetmap_id": "294484398"}, "geometry": {"type": "Point", "coordinates": ["9.261899", "47.317659"]}}, {"type": "Feature", "properties": {"identifier": "ae7dac70-d70b-4187-b11c-63ce5dc842af", "name": "Auenland", "description": "Das Auenland bietet eine Plattform f\u00fcr echte Begegnungen, gemeinsame Erlebnisse und den direkten sozialen Austausch eingebettet in die H\u00fcgel des Appenzellerlands. Bei uns erleben Sie Raum und Zeit in privater Atmosph\u00e4re: 50er-Jahre Industriecharme triff auf Fauna und Flora, lichtdurchflutete Werkhallen mit Aus- und Weitblick erwarten Sie. Die R\u00e4ume lassen sich miteinander verbinden und weit \u00f6ffnen. Eine grossz\u00fcgige, nat\u00fcrliche Aussenumgebung rundet das Angebot ab. Ideal f\u00fcr Seminare, Tagungen, Feierlichkeiten und Kulturveranstaltungen.", "url": "https://auen-land.ch", "image": "https://ostpimtsoch.sos-ch-dk-2.exoscale-cdn.com/catalog/b/f/b/7/bfb786bb8af9f1b5562c0a97e0c8b7c685fee4f3_226344038f00c7b757060cc4cbabea32.jpeg", "openstreetmap_id": "way/41146254"}, "geometry": {"type": "Point", "coordinates": ["9.3560887", "47.3599816"]}}, {"type": "Feature", "properties": {"identifier": "afa9e681-18f7-44f0-a1c6-5ece6facf2b8", "name": "Mountaincarts", "description": "Auf der rund 2200m langen Strecke zwischen den Stationen Gaffia und Furt kann die aufregende und kurvenreiche Naturstrasse befahren werden. Dank des tiefen Schwerpunkts und einem breiten Radstand, verf\u00fcgen die Mountaincarts \u00fcber eine hohe Stabilit\u00e4t. Ohne Motor und aus reiner Schwerkraft angetrieben, kann selbst bestimmt werden in welchem Tempo die Fahrt aufgenommen werden soll. Die Sicherheit steht jedoch auch bei uns stets an erster Stelle. Bitte beachten Sie hierzu stets unsere Verhaltensregeln sowie die Allgemeinen Gesch\u00e4ftsbedingungen.\n\nDas alpine Fahrvergn\u00fcgen auf der abwechslungsreichen Bergstrecke (Alpstrasse) ist garantiert und stellt ein besonderes, nicht allt\u00e4gliches Erlebnis dar.", "url": "https://pizol.com/sommer-erleben/mountaincarts?lang=de_CH", "image": "https://ostpimtsoch.sos-ch-dk-2.exoscale-cdn.com/catalog/d/d/d/1/ddd15a27e47e3a90187ceeafe11f5aa27a271e69_28aea92e636f2ce8411ceaedb018119b.JPG", "openstreetmap_id": "node/8329807784"}, "geometry": {"type": "Point", "coordinates": ["9.412794113159181", "46.990965010245155"]}}, {"type": "Feature", "properties": {"identifier": "b187ab79-25d8-4a46-9d1c-bc590d7150f8", "name": "Relax.Oase im Hotel Schloss Ragaz", "description": "&#60;p>Unsere gem\u00fctliche Relax.oase im Schlosspark ist der perfekte Ort, um Ruhe zu finden und zu entspannen. Umgeben von der Natur k\u00f6nnen Sie hier eine Auszeit vom Alltag geniessen. Entspannen Sie in der Sauna, im Dampfbad oder bei einer wohltuenden Massage. Wir freuen uns auf Ihren Besuch und bieten Ihnen eine erholsame Zeit. relax.oase mit 300m2 Finnische Blockhaussauna im Aussenbereich, Dampf- und Aromab\u00e4der, Softsauna, Erlebnisduschen, Einzelwhirlpool, Ruheraum und Aussenpool (Mai bis Oktober).&#60;/p>", "url": "https://www.hotelschlossragaz.ch/de/", "image": "https://ostpimtsoch.sos-ch-dk-2.exoscale-cdn.com/catalog/d/2/5/6/d2563d225369a105b7fa70e016beb54d87c377bd_986a526697e238d6534ea50172136c54.jpg"}, "geometry": {"type": "Point", "coordinates": ["9.510233402252199", "46.99709963974352"]}}, {"type": "Feature", "properties": {"identifier": "beac9585-5bc1-43c5-9809-369dbfc7854e", "name": "Traditionelle Degustations-Tour", "description": "Lassen Sie sich auf einem Rundgang entf\u00fchren in luftige H\u00f6hen (Kirchturm) und versteckte Winkel im Biedermeierdorf Heiden. Dabei lernen Sie nicht nur das Dorf kennen, sondern d\u00fcrfen typische Appenzeller Spezialit\u00e4ten schlemmen. Eine schmackhafte Angelegenheit f\u00fcr das ganze Gem\u00fct.\n\nDauer: 2 Stunden\nTeilnehmer: max. 25 Personen\nKosten: CHF 38.00 pro Person", "url": "https://appenzellerland.ch/de/", "image": "https://ostpimtsoch.sos-ch-dk-2.exoscale-cdn.com/catalog/2/4/1/d/241ddd1c4050c190b8a1d356f0bab7d7bbdced15_6fc720bc35ef5a4e4e6c9786fe6a9f4a.jpg", "openstreetmap_id": "8364473311"}, "geometry": {"type": "Point", "coordinates": ["9.536593079583328", "47.446056806648365"]}}, {"type": "Feature", "properties": {"identifier": "c3b9099e-9e5f-49b0-9dc9-9249a9e1b2a9", "name": "kneippen4you", "description": "Der Kneipp Garten ist ruhig gelegen am Rande des Waldes. Gut zu verbinden mit einem Ausflug zu Fuss oder mit dem Bike von Schaffhausen oder vom Klettgau mit ev. Abstecher zum Beringer Randenturm. Bei uns k\u00f6nnen Sie nach Wunsch eine gratis Beratung \u00fcber die gesundheitlichen Anwendungen erhalten oder k\u00f6nnen sich frei im Garten dem Wassertreten, Armbad oder Barfusspfad erfreuen. Erfahren Sie mehr \u00fcber die vielen Kr\u00e4uter die im Garten verteilt sind. Nat\u00fcrlich gibt es auch eine Erfrischung und dazu laden ein paar lauschige Nischen ein. Ein Erlebnis f\u00fcr alle Generationen.", "image": "https://ostpimtsoch.sos-ch-dk-2.exoscale-cdn.com/catalog/5/a/2/b/5a2b235f5414f0536be67bf62a53d6e5676c5118_5ae737e907adb815a31c463e6e7e0a34.jpg"}}, {"type": "Feature", "properties": {"identifier": "c48d77f1-ab25-46ac-b47b-ea849de6f818", "name": "Lama-Ziit GmbH", "description": "Wollen Sie sich vom Lama-Virus anstecken lassen? Spazierg\u00e4nge mit Lamas sind ein besonderes Erlebnis f\u00fcr Jung und Alt. Um ein Lama zu f\u00fchren, braucht es keine Vorkenntnisse. Mit wenigen zu beachtenden Regeln lassen sich die Tiere problemlos von Kindern und Erwachsenen am F\u00fchrstrick leiten. Ihre ruhige Art hilft, selber ruhig zu werden; der aufmerksame Blick lenkt den eigenen Blick auf die Sch\u00f6nheiten und Details in der Umgebung. \n\nDie Tiere sind in einem gem\u00e4chlichen Tempo unterwegs, was es auch Menschen mit leichter Gehbehinderung erm\u00f6glicht, sie zu f\u00fchren. Lamas sind \u00e4usserst vorsichtig im Umgang mit Menschen und eignen sich daher ausgezeichnet f\u00fcr Natur- und Tiererlebnisse.\n\nLernen Sie diese wunderbaren Tiere auf einer Feierabendtour kennen. Buchen Sie unser Angebot f\u00fcr einen speziellen Familienausflug, Teamanlass oder Kindergeburtstag und verbringen Sie mehrere Stunden mit den Tieren. Zum Beispiel auf einem Trekking mit einer Pause am Feuer f\u00fcr gem\u00fctliches Beisammensein.\n\nDie Teilnehmerzahl ist bei einer offenen Gruppe auf acht Personen beschr\u00e4nkt.\nBei einer geschlossenen Gruppe sind 20 Personen m\u00f6glich. ", "url": "https://lama-ziit.ch/", "image": "https://ostpimtsoch.sos-ch-dk-2.exoscale-cdn.com/catalog/4/2/f/4/42f4d886c12902129d2dda8fa6289097d2e36ae1_dcfb743f0c487d1d7bde114c170718fa.jpg", "openstreetmap_id": "node/3885436527"}, "geometry": {"type": "Point", "coordinates": ["9.264172911643984", "47.39049440343878"]}}, {"type": "Feature", "properties": {"identifier": "d004247b-d3c1-45a1-b846-d78b8aa29404", "name": "Baumzelt - Tr\u00e4umen in den B\u00e4umen", "description": "Tr\u00e4umen in den B\u00e4umen im exklusiven Baumzelt des KSS Sport- und Freizeitparks Schaffhausen\n\n\u2022 Abends als letzter Badegast dem 33 Grad warmen Sprudelbad entsteigen oder fr\u00fchmorgens exklusiv das reichhaltige Fr\u00fchst\u00fcck auf der Sonnenterrasse geniessen?\n\u2022 F\u00fcr CHF 195.00 (2 Erwachsene & 2 Kinder) inklusive Eintritte am An- und Abreisetag & reichhaltiges Fr\u00fchst\u00fcck (Maximal 2 Erwachsene & 2 Kinder bis 12 Jahre oder 3 Erwachsene)\n\u2022 Garderoben, Toiletten & Duschen des Freibads stehen zur Verf\u00fcgung\n\nReservation via: www.shop.kss.ch", "image": "https://ostpimtsoch.sos-ch-dk-2.exoscale-cdn.com/catalog/1/9/2/1/1921ec80dfa44f03fcbd528187ef9167d9b291b6_11d571e1e83641ac3c1642a097137cbe.jpg"}}, {"type": "Feature", "properties": {"identifier": "d806450f-4c70-4657-bb7e-c97d1122d7eb", "name": "ZebrastreifenEvents", "description": "<p>Erlebnisp\u00e4dagogik am Bodensee bei ZebrastreifenEvents: Die Teilnehmenden erleben einen abwechslungsreichen und spannenden Tag. Die Angebote sind vielf\u00e4ltig:<br><br>Flossbau: Am Ufer des Bodensees im Thurgau werden gemeinsam Fl\u00f6sse gebaut. Nach der strategischen und kreativen Bauphase geht es gemeisam aufs Wasser. Dabei bringt dieser Tag jede Menge Spass. <br><br>Walderlebnistag, Survival in der Wildnis: Die Teilnehmenden bauen einen Unterschlupf und lernen im Feuerworkshop verschiedene Feuertechniken kennen. Mittags kann an der Grillstelle grilliert werden.<br><br>Teamtag mal anders: Draussen in der Natur werden gemeinsam verschiedene Herausforderungen gemeistert. Individuelle W\u00fcnsche werden ber\u00fccksichtigt. Der Veranstaltungsort kann abgesprochen werden.<br></p>", "url": "https://www.zebrastreifen.events", "image": "https://ostpimtsoch.sos-ch-dk-2.exoscale-cdn.com/catalog/1/5/4/9/15490cdc1260958346b7331a20dc8e9c47aedba3_f4637d2226825d303299925c9fcdd0f3.jpg", "openstreetmap_id": "node/6377781393"}, "geometry": {"type": "Point", "coordinates": ["9.3799292", "47.5644513"]}}, {"type": "Feature", "properties": {"identifier": "e617d108-7121-4f50-a7d3-18cdbdd2c097", "name": "Appenzeller Heilbad", "description": "Seit drei Jahrhunderten wird oberhalb von Heiden eine mineralhaltige Heilquelle f\u00fcr Entspannung, Genuss und Erholung genutzt. Daraus ist vor vierzig Jahren das Appenzeller Heilbad entstanden.\n\nMit seiner B\u00e4der- und Saunalandschaft, dem Massage- und Wellnessangebot sowie der Physiotherapie bietet das Appenzeller Heilbad alles f\u00fcr Erholung, Entspannung und Gesundheit. Ausserdem geh\u00f6rt auch ein grosses, mit modernsten Ger\u00e4ten ausgestattetes Fitnesscenter dazu.", "url": "https://www.heilbad.ch/", "image": "https://ostpimtsoch.sos-ch-dk-2.exoscale-cdn.com/catalog/7/4/d/f/74df827894fd6529615a87e630b0e5e145fa5ad6_cb007b43bc1b8a6577557cbbc90c472b.jpg", "openstreetmap_id": "199064816"}, "geometry": {"type": "Point", "coordinates": ["9.5160354", "47.4308669"]}}, {"type": "Feature", "properties": {"identifier": "e69f8a28-c1b9-4f66-a1ac-3aa186b659d5", "name": "H\u00e4ngebr\u00fccke Grub", "description": "Seit April 2019 sind die zwei D\u00f6rfer Grub AR und Grub SG durch eine attraktive, 180 Meter lange H\u00e4ngebr\u00fccke \u00fcber den Mattenbach wieder miteinander verbunden. Ein sehr beliebter  Wanderweg  \u00fcber  die  Kantonsgrenze  von  der Frauenr\u00fcti Grub AR zum Gebiet Gr\u00fcnau Grub SG ist somit wieder durchgehend erschlossen. \n\nDie Br\u00fccke ist nur f\u00fcr Schwindelfreie. Der h\u00f6chste Punkt der Br\u00fccke findet sich rund 40 Meter \u00fcber der Schlucht. \n\nVerbinden Sie die Besichtigung mit einer Wanderung!\nHier finden Sie Wandervorschl\u00e4ge: <a href=\"http://www.appenzellerland.ch/rundtourheiden/\" target=\"_blank\">Rundtour Heiden</a> oder <a href=\"https://www.appenzellerland.ch/rundwanderungheiden/\" target=\"_blank\">Rundwanderung Heiden</a> ", "image": "https://ostpimtsoch.sos-ch-dk-2.exoscale-cdn.com/catalog/3/2/f/3/32f327b528e09a34e5eb02099272dc7a0f76078f_920cf9173392b61918c0ac8f0f2d74f8.jpg", "openstreetmap_id": "736603116"}, "geometry": {"type": "Point", "coordinates": ["9.5187008", "47.4505188"]}}, {"type": "Feature", "properties": {"identifier": "e979493b-9f3b-40fe-a984-b25bac698280", "name": "Kulturwerkstatt - Brauchtum, Zauren und Musik", "description": "Im grossz\u00fcgigen Werkstattgeb\u00e4ude von Werner Alder, Hackbrettbauer und Mitglied der bekannten Streichmusik Alder-Dynastie, werden unterhaltsame Vortr\u00e4ge und F\u00fchrungen angeboten. W\u00e4hrend diesen erhalten Sie Einblicke in die faszinierende Welt des Hackbrettbaus, ins hiesige Brauchtum und erleben die Klangwelt der einzigartigen Appenzeller Volksmusik. Neben der Musik k\u00f6nnen Sie auch das Jodeln und Talerschwingen hautnah erleben.\nAbgerundet wird die F\u00fchrung mit einem Werkstattrundgang. Tauchen Sie ein und erfahren Sie mit all Ihren Sinnen ein echtes St\u00fcck Brauchtumskultur!\n\nAngebote Gruppenf\u00fchrungen:\n\n- Vortrag Hackbrettbau\n- Vortrag Hackbrettbau und Appenzeller Brauchtum (mit zus\u00e4tzlichen Infos zum Brauchum, Musik und Talerschwingen)\n- Kurs Jodeln und Talerschwingen\n- kommentiertes Konzert \n   Appenzeller Musik \n\nAuf Wunsch verk\u00f6stigt das Team der Kulturwerkstatt Sie gerne mit Spezialit\u00e4ten aus der Region oder bietet einen Ap\u00e9ro an.\n\nDauer: 1 bis 1 1/2 Stunden\nTeilnehmer: ab 10 Personen\nKosten: ab CHF 350.00", "url": "http://www.kulturwerkstatt-appenzellerland.ch", "image": "https://ostpimtsoch.sos-ch-dk-2.exoscale-cdn.com/catalog/6/6/1/d/661d3fdcc5b7f7025c82583e7e38283aefc7bdfc_998796a3ddbee8d943db8269e5ef3024.jpg", "openstreetmap_id": "3244507235"}, "geometry": {"type": "Point", "coordinates": ["9.285102000000052", "47.3877396"]}}, {"type": "Feature", "properties": {"identifier": "eedf77d6-d3b8-4df8-bb7d-46a2d726b924", "name": "Stiftung Kinderdorf Pestalozzi", "description": "Entdecken Sie das historische Kinderdorf Pestalozzi, wo sich Geschichte und Gegenwart auf faszinierende Weise begegnen. Starten Sie das Erlebnis mit einer interaktiven Ausstellung, die Sie zu den Urspr\u00fcngen der ZEWO-zertifizierten Stiftung zur\u00fcckf\u00fchrt. Verfolgen Sie die Entwicklung des Kinderdorfs von seiner Gr\u00fcndungsidee nach dem Zweiten Weltkrieg bis zur renommierten NGO von heute. \n\nDie Erlebniswelt im Kinderdorf Pestalozzi bietet f\u00fcr Gross und Klein viel Platz f\u00fcr Kreativit\u00e4t, spielerisches Lernen und Erholung. Die Welt setzt sich zusammen aus 10 spannenden und zugleich lehrreichen Spielm\u00f6glichkeiten und R\u00fcckzugsorten, die als Gruppe erkundet werden k\u00f6nnen. Auch f\u00fcr Eltern und Begleitpersonen sorgen unsere Spieltr\u00e4ume f\u00fcr Unterhaltung und interessante Erkenntnisse. Das Kinderdorf Wimmelbild f\u00fchrt Entdecker*innen durch das Erlebnisdorf und vermittelt spannende Fakten \u00fcber Kinderrechte, w\u00e4hrend die Riesenkugelbahn, der Balancierpfad oder die Spinnerei (Kletternetz) die Geschicklichkeit testen. \n\nFalls Sie noch etwas Hunger oder Durst versp\u00fcren sollten, bietet die Cafeteria eine Auswahl an erfrischenden Getr\u00e4nken und Snacks.\n\nDas Kinderdorf Pestalozzi liegt hoch \u00fcber dem Bodensee, umgeben von den sanften H\u00fcgeln des Appenzellerlands. Es befindet sich nur 20 Minuten von St. Gallen entfernt \u2013 abseits jeglicher Hektik, in gr\u00fcner Natur und bequem mit der Appenzeller Bahn erreichbar. \n\n<a href=\"https://dorf.pestalozzi.ch/ \" target=\"_blank\">Weitere Informationen und Preisdetails finden Sie hier.</a>\n ", "url": "https://dorf.pestalozzi.ch/", "image": "https://ostpimtsoch.sos-ch-dk-2.exoscale-cdn.com/catalog/f/3/9/a/f39a5cacd1b226c4c41fb9e8be3032085d046f00_6c94664daf6fd1b8b1d83750899eefda.jpg", "openstreetmap_id": "761032565"}, "geometry": {"type": "Point", "coordinates": ["9.46005", "47.4033"]}}, {"type": "Feature", "properties": {"identifier": "f16a6a6a-fb2b-4d3f-b778-52934972a4aa", "name": "Appenzeller Brauchtumsmuseum - Museums-Detektiv", "description": "Beweisen Sie Ihr K\u00f6nnen und l\u00f6sen Sie knifflige R\u00e4tsel und Aufgaben \u00fcber das Appenzeller Brauchtum. Am Schluss wartet die grosse Schatztruhe mit einer \u00dcberraschung f\u00fcr alle R\u00e4tselfreunde.\n\nDer R\u00e4tselspass ist f\u00fcr Familien/Einzelpersonen gratis zuz\u00fcglich Museums-Eintritt.", "url": "https://www.museum-urnaesch.ch/angebote/museums-detektiv", "image": "https://ostpimtsoch.sos-ch-dk-2.exoscale-cdn.com/catalog/e/d/9/9/ed999745336747479f34df6bdfff1a95a5af0494_d8efb5077e8a073f6379f6dc7e14d33d.jpg", "openstreetmap_id": "node/299122250"}, "geometry": {"type": "Point", "coordinates": ["9.282742", "47.3172728"]}}, {"type": "Feature", "properties": {"identifier": "f6cfb4ee-2481-4b45-96e0-569ebfc8771f", "name": "Fischen im Seebensee", "description": "Zur Seebenalp geh\u00f6ren zwei Seen. Es sind die einzigen Bergseen in der Schweiz, die auf 1650 m Seeh\u00f6he liegen.\n\nDie Fischerkarte ist im Berghotel Seebenalp erh\u00e4ltlich.\nDie Hechte m\u00fcssen eine Mindestl\u00e4nge von 50 cm haben.\n\nWeitere Informationen erhalten direkt Sie im Berghotel Seebenalp.", "url": "http://www.seebenalp.ch", "image": "https://ostpimtsoch.sos-ch-dk-2.exoscale-cdn.com/catalog/4/a/9/f/4a9f3fcb4a78b791a802ec97bded854f83aa1047_0da3a6b42dc227aa8e48226f82c5cb1c.jpg", "openstreetmap_id": "way/190606656"}, "geometry": {"type": "Point", "coordinates": ["9.248347277089128", "47.0804291"]}}, {"type": "Feature", "properties": {"identifier": "f92f1331-98da-4b26-a9f0-6febab1c7009", "name": "Kirchturm Heiden", "description": "Der erste Kirchenbau in Heiden erfolgte im Jahre 1652, nach der Abl\u00f6sung von der Mutterkirche in Thal. Durch die Verdoppelung der Einwohnerzahl auf 2300 Seelen wurde 1836 der Ruf nach einer gr\u00f6sseren Kirche immer lauter. Am 8. Mai 1838 wurde mit dem Turmbau nordwestlich der alten Kirche begonnen.\n\nDie Sicht vom Kirchturm in Heiden reicht \u00fcber den Bodensee bis weit \u00fcbers deutsche und \u00f6sterreichische Ufer hinaus. Bei ganz guter Sicht sieht man bis Ulm. \n\nDer Kirchturm Heiden ist von Mai - Oktober ge\u00f6ffnet.", "url": "https://www.heiden.ch/sehenswertes/5591", "image": "https://ostpimtsoch.sos-ch-dk-2.exoscale-cdn.com/catalog/c/a/f/5/caf573f9514c7dd0df8bb13375e2b9a61ef4b92d_3d2c0e353d07f52b23d5f31e0c0174b9.jpg", "openstreetmap_id": "way/199215491"}, "geometry": {"type": "Point", "coordinates": ["9.534995751998174", "47.4450565"]}}, {"type": "Feature", "properties": {"identifier": "fec2c40f-2465-45a6-b10d-a173cee2f856", "name": "Gleitschirm Tandemflug Walensee - Flums - Pizol", "description": "Der Gleitschirmflug in der Region Walensee, Pizol und Flums ist ein einzigartiges Erlebnis. W\u00e4hle dein Lieblingsort im Heidiland und schon kann es losgehen mit dem Gleitschirm Tandemflug. Wir fliegen das ganze Jahr \u00fcber vom Walenstadtberg und w\u00e4hrend der Betriebszeiten der Bergbahnen vom Maschgenkamm, Sch\u00f6nhalden und Pizol. Der Paragliding Flug kann mit verschiedenen Flugzeiten gebucht werden - gerne beraten wir dich pers\u00f6nlich. Wir freuen uns auf dich!", "url": "https://www.passagierflug.ch/gleitschirm-tandemflug/standorte/walensee-flumserberg", "image": "https://ostpimtsoch.sos-ch-dk-2.exoscale-cdn.com/catalog/d/a/1/4/da14af4b5b583bc01e51337090f85ee7340c66b5_db3c67882be7b786fa0ac52b2306a398.jpg", "openstreetmap_id": "node/881851048"}, "geometry": {"type": "Point", "coordinates": ["9.308166503906252", "47.12333753243728"]}}, {"type": "Feature", "properties": {"identifier": "ff310ad0-ae50-4da7-92fc-977b310ce2d2", "name": "Appenzeller Schauk\u00e4serei - Fondue-Kochkurs", "description": "Dann haben Sie in der Appenzeller Schauk\u00e4serei die grosse und freie Wahl! Sie stellen sich Ihre eigene Fondue-Mischung an der K\u00e4setheke zusammen, suchen die gew\u00fcnschten Zutaten aus und kochen unter Begleitung einer unserer fachkundigen Gastgeberinnen Ihr selbst zusammengestelltes Fondue direkt am Tisch.\n\nBuchbar ab 6 Personen\nWann: t\u00e4glich, Voranmeldung notwendig\nDauer: rund 45 Minuten (ohne Esssenszeit)\nKosten: ab CHF 36.00", "url": "http://www.schaukaeserei.ch/", "image": "https://ostpimtsoch.sos-ch-dk-2.exoscale-cdn.com/catalog/d/d/2/0/dd20b83aed078540d4b6e01c2bb5f088d4012c31_9b2e04b06d811c3031322bca77d96c9f.jpg", "openstreetmap_id": "1436691275"}, "geometry": {"type": "Point", "coordinates": ["9.344712", "47.373415"]}}]}