{"type": "FeatureCollection", "features": [{"type": "Feature", "properties": {"identifier": "1a5e29ab-0d20-420b-9dbf-fc0783715fa2", "name": "Schienenerlebnisse", "description": "<p>Wir stellen Ihnen gerne ein Gesamtpaket unter der Ber&uuml;cksichtigung Ihrer W&uuml;nsche zusammen. Ob private oder gesch&auml;ftliche Anl&auml;sse &ndash; mit unserem Fachwissen und unserer Kreativit&auml;t beraten wir Sie ganz individuell und mit Liebe zum Detail.</p><p>Sie haben die M&ouml;glichkeit, aus bereits bestehenden Event-Beispielen auszuw&auml;hlen, diese je nach Wunsch individuell anzupassen oder f&uuml;r sich einen ganz eigenen Event zu gestalten. Mit dem untenstehenden Button gelangen Sie zu auserlesenen Event-Beispielen.</p>", "image": "https://ostpimtsoch.sos-ch-dk-2.exoscale-cdn.com/catalog/2/b/b/5/2bb576d83066deb70e9fb2c1d71da7479961e2eb_ced1f5bb9631c2aafb31b53d4c0958c1.jpg", "openstreetmap_id": "node/158773000"}, "geometry": {"type": "Point", "coordinates": ["8.894150753920062", "47.55586341460734"]}}, {"type": "Feature", "properties": {"identifier": "94d59c6a-d334-468b-bfe4-1918a4e55532", "name": "Pizolbahnen AG", "description": "\u00dcber 120 Kilometer Wanderwege, Trails f\u00fcr Trailrunner und Mountainbiker, idyllische Bergseen f\u00fcr Wanderer und Sportfischer, der Klettergarten Tw\u00e4rchamm und Startpl\u00e4tze f\u00fcr Gleitschirm-Piloten. F\u00fcr Familien bietet sich besonders der Heidipfad, der Wasserwald oder der MounTeens Detektiv-Weg an.", "url": "https://pizol.com/", "image": "https://ostpimtsoch.sos-ch-dk-2.exoscale-cdn.com/catalog/2/a/8/0/2a80a44323cc5a867502ec547ce4e91f4ef4bc87_c62423ca84a2268e65d4ce4743714f93.jpg", "openstreetmap_id": "node/558818427"}, "geometry": {"type": "Point", "coordinates": ["9.4736441", "47.0171423"]}}, {"type": "Feature", "properties": {"identifier": "95d39dc6-6067-49a2-a5c2-f0005f33d388", "name": "Bergbahnen Flumserberg", "description": "Am Flumserberg stehen im Winter 65 Pistenkilometer mit 17 bequemen Liftanlagen, eine 3 km lange mittelschwere Schlittelpiste, 35 km Winterwanderwege sowie 20 Loipenkilometer zur Verf\u00fcgung. F\u00fcr Abwechslung auf den Pisten sorgen die Abfahrtsroute H\u00e4x\u00e4W\u00e4ldli sowie der SnowPark, der FamilyRun und die CrossPiste Flumserberg. \n\nW\u00e4hrend der schneefreien Zeit l\u00e4sst der Flumserberg mit \u00fcber 150 Wanderkilometer, der Rodelbahn FLOOMZER, dem Kletterturm CLiiMBER und den 13 km flowigen BikerTrails die Herzen der G\u00e4ste h\u00f6her schlagen. W\u00e4hrend dieser Zeit sind 6 Bahnanlagen in Betrieb.", "url": "https://www.flumserberg.ch/de", "image": "https://ostpimtsoch.sos-ch-dk-2.exoscale-cdn.com/catalog/4/3/e/0/43e05b3ec73a515856671a1abc6a82566d0c9a81_418b29c86f8ffdf09fbdcf342f674b4b.jpg", "openstreetmap_id": "way/754266155"}, "geometry": {"type": "Point", "coordinates": ["9.280577301979067", "47.092138187784"]}}, {"type": "Feature", "properties": {"identifier": "b3f15e19-db82-4025-a62f-0cfb6fcc4ef3", "name": "Skilift Tristeli, St.Margrethenberg", "description": "Auf dem Hochplateau St.Margrethenberg wird im Winter bei ausreichend Schnee ein kleiner Skilift betrieben. Es stehen ca. 4 km Pisten zur Verfu\u0308gung. Zuoberst am Lift befindet sich auf dem Golerberg ein kleines Restaurant mit einer aussichtsreichen Terrasse. Das familia\u0308re Skigebiet liegt auf einer Ho\u0308he von 1195 bis 1447 m.", "url": "https://skilift-tristeli.ch/", "image": "https://ostpimtsoch.sos-ch-dk-2.exoscale-cdn.com/catalog/9/b/0/d/9b0d33dc21c6989d93d25d39e0cb42a6c2bc72f9_417f5cad28a2c6408d3c8b861accf814.JPG", "openstreetmap_id": "node/2269512835"}, "geometry": {"type": "Point", "coordinates": ["9.5078917", "46.9810631"]}}, {"type": "Feature", "properties": {"identifier": "f2a68a9a-d6fb-4239-9df9-c9d236873720", "name": "Luftseilbahn Wasserauen-Ebenalp AG", "description": "Man sp\u00fcrt sie noch heute. Die Urkraft des Berges.\nAn der Felswand beim Aescher und im Innern der Wildkirchlih\u00f6hlen\n\nEs ist der Ort, an dem alles begann. Die Quelle des Alpsteintourismus. Dort, wo das Berggasthaus Aescher steht. Es geh\u00f6rt zu den \u00e4ltesten der Schweiz. Bereits um 1800 begannen Eremiten und Sennen auf der Alp Aescher G\u00e4ste zu verpflegen. Heute ist das Gasthaus weit bekannt. F\u00fcr seine Atmosph\u00e4re und seine Gastfreundschaft. Angeschmiegt an den Felsen, eins mit dem Berg und der imposanten Natur. Ein Bild, das um die Welt geht.\n\nNicht weniger gross ist die Anziehungskraft des nahegelegenen Wildkirchli. Pr\u00e4historische Funde machen die Wildkirchlih\u00f6hlen 1904 ber\u00fchmt. Die Ausgrabungen beweisen erstmals, dass Neandertaler auch im Alpenraum waren. Und dann w\u00e4ren da noch die Spuren der H\u00f6hlenb\u00e4ren.\n\nAber auch im Winter hat die Ebenalp, die Sonnenterrasse des Alpsteins, etwas zu bieten.\n\nRaus aus dem grauen Alltag, rein in das sonnige Vergn\u00fcgen.\nLeichtf\u00fcssig durch die schneegepuderte Landschaft, die Sonne im Gesicht und der Blick \u00fcber den Alpstein \u2013 so unbeschwert kann der Winter sein. Auf dem Panoramaweg und der Schneeschuhroute bleibt der Genuss gewiss nicht auf der Strecke.\nBeide Wanderungen f\u00fchren von der Bergstation Ebenalp vorbei am Berggasthaus. Sonnenhungrige sowie Erholungssuchende sind hier gut bedient.\n\nIm Skigebiet Ebenalp-Horn gleitet der Stresspegel ebenfalls talw\u00e4rts. Kurze Anfahrtswege, gen\u00fcgend Parkpl\u00e4tze und geringe Wartezeiten lassen aufatmen. Bei uns gilt: Herunterfahren und Entschleunigen. Genau das richtige f\u00fcr ein locker-flockiges Schneevergn\u00fcgen im Appenzellerland.\nUnser Naherholungs-Skigebiet trumpft mit abwechslungsreichen Abfahrten in allen Schwierigkeitsgraden f\u00fcr die ganze Familie.", "url": "https://www.ebenalp.ch", "image": "https://ostpimtsoch.sos-ch-dk-2.exoscale-cdn.com/catalog/3/7/b/9/37b920275a32c0d68d8bfa39f956107f87637beb_ebdd51f0fb6745664d1d5cb077444e5e.jpg", "openstreetmap_id": "way/25204305"}, "geometry": {"type": "Point", "coordinates": ["9.428586959838869", "47.2866086580885"]}}]}